0 COSMOS 2251 DEB
1 34960U 93036AEP 13281.80416413  .00031061  00000-0  50654-2 0  1686
2 34960 074.0171 060.7883 0012051 204.2633 276.9180 14.70764569235322
0 COSMOS 2251 DEB
1 34960U 93036AEP 13282.47320590  .00051215  00000-0  83061-2 0  1692
2 34960 074.0162 059.4881 0011915 204.3803 217.8157 14.70858150235422
0 COSMOS 2251 DEB
1 34960U 93036AEP 13282.82484435  .00039100  00000-0  63517-2 0  1705
2 34960 074.0164 058.8049 0011963 203.9116 279.4825 14.70872822235471
0 COSMOS 2251 DEB
1 34960U 93036AEP 13285.82311530  .00035905  00000-0  58103-2 0  1729
2 34960 074.0158 052.9758 0011582 200.5690 313.6101 14.71068229235919
0 COSMOS 2251 DEB
1 34960U 93036AEP 13287.16531523  .00035211  00000-0  56872-2 0  1736
2 34960 074.0160 050.3653 0011436 199.4924 220.0663 14.71157640236115
0 COSMOS 2251 DEB
1 34960U 93036AEP 13287.78949388  .00049813  00000-0  80176-2 0  1744
2 34960 074.0164 049.1513 0011249 198.4262 285.5771 14.71205348236201
0 COSMOS 2251 DEB
1 34960U 93036AEP 13288.46940530  .00058992  00000-0  94643-2 0  1753
2 34960 074.0156 047.8292 0011060 198.8456 284.8271 14.71283651236302
0 COSMOS 2251 DEB
1 34960U 93036AEP 13289.33590786  .00050750  00000-0  81380-2 0  1763
2 34960 074.0163 046.1430 0010926 197.9212 193.5236 14.71363798236438
0 COSMOS 2251 DEB
1 34960U 93036AEP 13289.76122313  .00055906  00000-0  89527-2 0  1777
2 34960 074.0161 045.3156 0010831 197.9026 285.5005 14.71387223236491
0 COSMOS 2251 DEB
1 34960U 93036AEP 13290.50982245  .00054795  00000-0  87633-2 0  1781
2 34960 074.0163 043.8597 0010635 195.6721 291.5221 14.71454156236604
0 COSMOS 2251 DEB
1 34960U 93036AEP 13291.46144544  .00046034  00000-0  73587-2 0  1790
2 34960 074.0171 042.0083 0010633 196.0213 290.2289 14.71536689236740
0 COSMOS 2251 DEB
1 34960U 93036AEP 13292.48175087  .00044001  00000-0  70222-2 0  1806
2 34960 074.0167 040.0227 0010400 195.3968 293.8983 14.71624304236892
0 COSMOS 2251 DEB
1 34960U 93036AEP 13293.78013211  .00046182  00000-0  73518-2 0  1814
2 34960 074.0160 037.4957 0010128 193.6651 331.6724 14.71720342237087
0 COSMOS 2251 DEB
1 34960U 93036AEP 13295.05148556  .00046427  00000-0  73737-2 0  1823
2 34960 074.0157 035.0206 0009874 193.3985 225.3092 14.71821016237275
